      2.10          N: GNSS NAV DATA                        RINEX VERSION / TYPE
fic2rin                                 12/14/2019 00:19:36 PGM / RUN BY / DATE
                                                            END OF HEADER
 8 19 12 13  2  0  0.0-1.655425876379e-05-1.364242052659e-12 0.000000000000e+00
    4.500000000000e+01-2.015625000000e+01 4.687338103589e-09 1.288514534705e+00
   -9.443610906601e-07 4.834790597670e-03-1.037493348122e-06 5.153597881317e+03
    4.392000000000e+05 2.048909664154e-08-1.272820626042e+00 2.793967723846e-08
    9.699036737068e-01 3.996875000000e+02-2.312031178979e-01-8.553213418528e-09
   -1.928651764659e-10 1.000000000000e+00 2.083000000000e+03 0.000000000000e+00
    2.400000000000e+00 0.000000000000e+00 5.122274160385e-09 4.500000000000e+01
    4.320000000000e+05 4.000000000000e+00
24 19 12 13  2  0  0.0-6.139278411865e-06-5.684341886081e-13 0.000000000000e+00
    1.100000000000e+01 1.737500000000e+01 4.950206195958e-09-8.766321658084e-01
    9.667128324509e-07 9.255196084268e-03 1.008808612823e-05 5.153668905258e+03
    4.392000000000e+05 2.067536115646e-07 2.874001720382e+00 1.452863216400e-07
    9.376620140037e-01 1.725937500000e+02 6.345923154657e-01-8.109266354922e-09
   -5.289506043444e-10 1.000000000000e+00 2.083000000000e+03 0.000000000000e+00
    2.400000000000e+00 0.000000000000e+00 2.793967723846e-09 1.100000000000e+01
    4.320000000000e+05 4.000000000000e+00
22 19 12 13  2  0  0.0-7.772231474519e-04-2.046363078989e-12 0.000000000000e+00
    4.100000000000e+01-1.250000000000e+01 5.098426655649e-09 1.238677109931e-01
   -5.662441253662e-07 6.892679841258e-03 1.045875251293e-05 5.153626773834e+03
    4.392000000000e+05-7.264316082001e-08 7.561337731267e-01-8.009374141693e-08
    9.291243026709e-01 1.648750000000e+02-1.252523549090e+00-8.231057142283e-09
    6.139541450831e-10 1.000000000000e+00 2.083000000000e+03 0.000000000000e+00
    2.400000000000e+00 0.000000000000e+00-1.816079020500e-08 4.100000000000e+01
    4.320000000000e+05 4.000000000000e+00
16 19 12 13  2  0  0.0-1.024487428367e-04-3.865352482535e-12 0.000000000000e+00
    2.800000000000e+01 1.665000000000e+02 4.132672142383e-09 2.011426065844e+00
    8.532777428627e-06 1.106354349758e-02 6.161630153656e-06 5.153687696457e+03
    4.392000000000e+05-2.738088369370e-07-2.217891736413e+00-9.313225746155e-09
    9.807879334342e-01 2.725000000000e+02 5.819315743687e-01-7.962474526167e-09
    2.992981812563e-10 1.000000000000e+00 2.083000000000e+03 0.000000000000e+00
    2.400000000000e+00 0.000000000000e+00-1.024454832077e-08 2.800000000000e+01
    4.320000000000e+05 4.000000000000e+00
13 19 12 13  2  0  0.0-2.702046185732e-05 2.387423592154e-12 0.000000000000e+00
    2.500000000000e+01-1.225000000000e+01 4.783413534088e-09 1.893971265448e-01
   -7.078051567078e-07 4.130907589570e-03 5.418434739113e-06 5.153655708313e+03
    4.392000000000e+05-1.303851604462e-08 2.008693250022e+00 7.450580596924e-09
    9.673995675722e-01 2.791875000000e+02 1.182663894561e+00-8.134624554050e-09
   -2.350097891010e-10 1.000000000000e+00 2.083000000000e+03 0.000000000000e+00
    2.400000000000e+00 0.000000000000e+00-1.117587089539e-08 2.500000000000e+01
    4.320000000000e+05 4.000000000000e+00
12 19 12 13  2  0  0.0 1.738155260682e-04-3.979039320257e-12 0.000000000000e+00
    2.400000000000e+01 1.439375000000e+02 4.097313526697e-09-2.410642522194e+00
    7.485970854759e-06 7.681553717703e-03 5.489215254784e-06 5.153785406113e+03
    4.392000000000e+05 1.266598701477e-07-2.236783077828e+00-3.725290298462e-09
    9.805161642168e-01 2.853125000000e+02 1.095794767176e+00-7.817825643818e-09
    3.296565886630e-10 1.000000000000e+00 2.083000000000e+03 0.000000000000e+00
    2.400000000000e+00 0.000000000000e+00-1.257285475731e-08 2.400000000000e+01
    4.320000000000e+05 4.000000000000e+00
11 19 12 13  2  0  0.0-4.210546612740e-04 1.102762325900e-11 0.000000000000e+00
    6.000000000000e+01-1.462812500000e+02 5.577018019472e-09-1.960082853638e+00
   -7.323920726776e-06 1.627696526702e-02 3.114342689514e-06 5.153755104065e+03
    4.392000000000e+05-4.284083843231e-08-6.680140643700e-01 4.563480615616e-07
    9.115280431332e-01 2.914375000000e+02 1.976076357684e+00-8.680361571902e-09
   -3.957307694893e-10 1.000000000000e+00 2.083000000000e+03 0.000000000000e+00
    2.400000000000e+00 0.000000000000e+00-1.210719347000e-08 6.000000000000e+01
    4.320000000000e+05 4.000000000000e+00
28 19 12 13  2  0  0.0 7.508909329772e-04-1.818989403546e-12 0.000000000000e+00
    3.600000000000e+01 1.331875000000e+02 4.058740491404e-09 1.804927219218e+00
    6.681308150291e-06 1.903060800396e-02 5.843117833138e-06 5.153710088730e+03
    4.392000000000e+05 3.110617399216e-07-2.214057951852e+00-2.700835466385e-07
    9.797744998606e-01 2.709062500000e+02-1.430767740762e+00-7.706749588483e-09
    2.392956819114e-10 1.000000000000e+00 2.083000000000e+03 0.000000000000e+00
    2.400000000000e+00 0.000000000000e+00-1.117587089539e-08 3.600000000000e+01
    4.320000000000e+05 4.000000000000e+00
27 19 12 13  2  0  0.0-1.486437395215e-04-1.159605744760e-11 0.000000000000e+00
    8.100000000000e+01-2.581250000000e+01 4.555189741937e-09 1.073696716647e+00
   -1.195818185806e-06 7.461887435056e-03-6.929039955139e-07 5.153656669617e+03
    4.392000000000e+05-2.607703208923e-08-1.259866264087e+00 1.061707735062e-07
    9.782651663166e-01 4.006250000000e+02 4.973603211680e-01-8.537855635957e-09
   -2.117945363783e-10 1.000000000000e+00 2.083000000000e+03 0.000000000000e+00
    2.400000000000e+00 0.000000000000e+00 1.862645149231e-09 8.100000000000e+01
    4.320000000000e+05 4.000000000000e+00
30 19 12 13  2  0  0.0-1.046354882419e-04-8.640199666843e-12 0.000000000000e+00
    9.300000000000e+01 2.821875000000e+01 4.789842373304e-09-1.838892731846e+00
    1.249834895134e-06 4.165227641352e-03 1.119635999203e-05 5.153720214844e+03
    4.392000000000e+05-3.539025783539e-08 2.968464596580e+00-4.284083843231e-08
    9.398777892254e-01 1.531875000000e+02-2.921940641756e+00-7.945330954926e-09
   -4.535903224290e-10 1.000000000000e+00 2.083000000000e+03 0.000000000000e+00
    2.400000000000e+00 0.000000000000e+00 3.725290298462e-09 9.300000000000e+01
    4.320000000000e+05 4.000000000000e+00
25 19 12 13  2  0  0.0-1.735752448440e-05 1.136868377216e-13 0.000000000000e+00
    8.900000000000e+01 1.481875000000e+02 4.267677765909e-09-2.793249253906e+00
    7.575377821922e-06 8.709537680261e-03 6.183981895447e-06 5.153625175476e+03
    4.392000000000e+05 8.009374141693e-08-2.303613536647e+00-1.285225152969e-07
    9.679317713177e-01 2.636875000000e+02 8.871829738405e-01-7.872113619416e-09
    2.832260832175e-10 1.000000000000e+00 2.083000000000e+03 0.000000000000e+00
    3.400000000000e+00 0.000000000000e+00 5.587935447693e-09 8.900000000000e+01
    4.320000000000e+05 4.000000000000e+00
23 19 12 13  2  0  0.0-1.499108038843e-04 2.387423592154e-12 0.000000000000e+00
    1.080000000000e+02-2.156250000000e+00 5.444512500085e-09-3.843984377036e-01
    7.078051567078e-08 1.326795329805e-02 4.982575774193e-06 5.153692390442e+03
    4.392000000000e+05 0.000000000000e+00 1.861327003375e+00 2.011656761169e-07
    9.428597634023e-01 2.754375000000e+02-2.215041476066e+00-8.597858135302e-09
   -6.785996949726e-12 1.000000000000e+00 2.083000000000e+03 0.000000000000e+00
    3.400000000000e+00 0.000000000000e+00-2.048909664154e-08 1.080000000000e+02
    4.320000000000e+05 4.000000000000e+00
32 19 12 13  2  0  0.0 1.537231728435e-04 1.148237060988e-11 0.000000000000e+00
    6.100000000000e+01-6.593750000000e+00 5.043067206849e-09 1.844831466807e+00
   -3.036111593246e-07 3.331565880217e-03 4.867091774940e-06 5.153645837784e+03
    4.392000000000e+05-9.872019290924e-08 1.875970538320e+00 3.166496753693e-08
    9.562358831771e-01 2.795937500000e+02-2.547483509211e+00-8.200341577142e-09
   -7.607459738377e-11 1.000000000000e+00 2.083000000000e+03 0.000000000000e+00
    2.400000000000e+00 0.000000000000e+00 4.656612873077e-10 6.100000000000e+01
    4.320000000000e+05 4.000000000000e+00
26 19 12 13  2  0  0.0 1.044301316142e-04 8.185452315956e-12 0.000000000000e+00
    1.010000000000e+02 1.686875000000e+02 4.685909472653e-09 2.925818606443e+00
    8.769333362579e-06 4.344549728557e-03 6.770715117455e-06 5.153722457886e+03
    4.392000000000e+05-7.636845111847e-08-2.335844792077e+00-4.656612873077e-08
    9.491308821281e-01 2.432812500000e+02 1.389632422740e-01-8.134267396316e-09
    2.642967233051e-10 1.000000000000e+00 2.083000000000e+03 0.000000000000e+00
    2.400000000000e+00 0.000000000000e+00 7.450580596924e-09 1.010000000000e+02
    4.320000000000e+05 4.000000000000e+00
18 19 12 13  2  0  0.0 1.063137315214e-04 2.501110429876e-12 0.000000000000e+00
    8.000000000000e+01-1.528437500000e+02 4.392325815143e-09-1.415389494711e+00
   -7.780268788338e-06 1.562380860560e-02 8.394941687584e-06 5.153665630341e+03
    4.392000000000e+05 7.264316082001e-08-2.637916588843e-01 4.395842552185e-07
    9.570337674750e-01 2.128437500000e+02 1.446952882687e+00-8.036763334880e-09
   -2.678683006471e-10 1.000000000000e+00 2.083000000000e+03 0.000000000000e+00
    2.400000000000e+00 6.300000000000e+01-5.587935447693e-09 8.000000000000e+01
    4.320000000000e+05 4.000000000000e+00
 4 19 12 13  2  0  0.0-2.018362283707e-05-5.002220859751e-12 0.000000000000e+00
    1.640000000000e+02-7.093750000000e+00 4.966278293997e-09-1.258738286954e+00
   -3.445893526077e-07 1.250001136214e-03 5.142763257027e-06 5.150574892044e+03
    4.392000000000e+05-1.490116119385e-08 1.914957176396e+00 2.607703208923e-08
    9.593934104493e-01 2.801562500000e+02-1.280828197807e+00-8.169983169735e-09
   -8.107480566251e-11 1.000000000000e+00 2.083000000000e+03 0.000000000000e+00
    6.144000000000e+03 6.300000000000e+01-4.190951585770e-09 6.760000000000e+02
    4.320600000000e+05 4.000000000000e+00
